ONEWEB-0233             
1 48795U 21045AE  26127.09998345 -.00000011  00000+0 -63060-4 0  9992
2 48795  87.8965 267.4266 0001694  88.3523 271.7801 13.15550381238898
ONEWEB-0190             
1 48796U 21045AF  26127.08745387 -.00000016  00000+0 -75724-4 0  9993
2 48796  87.8967 267.3908 0001956  76.4207 283.7142 13.15548630238964
ONEWEB-0236             
1 48797U 21045AG  26127.10488560 -.00000439  00000+0 -12011-2 0  9991
2 48797  87.8975 267.3954 0001566  98.9920 261.1388 13.15550717238852
ONEWEB-0248             
1 48798U 21045AH  26127.11754598 -.00000085  00000+0 -26021-3 0  9994
2 48798  87.8976 267.3747 0001579  83.9246 276.2064 13.15551088239012
ONEWEB-0225             
1 48799U 21045AJ  26127.29183972  .00000157  00000+0  38328-3 0  9997
2 48799  87.8965 267.3506 0001873  81.3634 278.7708 13.15549621239049
ONEWEB-0215             
1 48800U 21045AK  26127.10964109 -.00000138  00000+0 -40139-3 0  9993
2 48800  87.8977 267.3660 0001802  75.4720 284.6610 13.15548314238896
ONEWEB-0216             
1 48801U 21045AL  26127.11914688 -.00000065  00000+0 -20615-3 0  9998
2 48801  87.8973 267.3802 0001896  99.3531 260.7813 13.15548453238905
ONEWEB-0239             
1 48802U 21045AM  26127.12388544  .00000069  00000+0  14989-3 0  9995
2 48802  87.8962 267.3897 0001516  71.4598 288.6697 13.15549520238940
ONEWEB-0249             
1 48967U 21060A   26127.24251667 -.00000041  00000+0 -14072-3 0  9997
2 48967  87.9097 236.9078 0001826 100.5279 259.6058 13.16596112234225
ONEWEB-0250             
1 48968U 21060B   26127.25302321  .00000046  00000+0  74443-4 0  9995
2 48968  87.9096 234.7950 0001067 119.7311 240.3932 13.25831230234799
ONEWEB-0252             
1 48970U 21060D   26127.27340640  .00000094  00000+0  21353-3 0  9990
2 48970  87.9093 236.8939 0002198  99.6368 260.5012 13.16595593234278
ONEWEB-0253             
1 48971U 21060E   26127.26231047 -.00000012  00000+0 -64256-4 0  9992
2 48971  87.9095 236.9017 0001850  99.4599 260.6741 13.16595067234206
ONEWEB-0254             
1 48972U 21060F   26127.27182317  .00000135  00000+0  31852-3 0  9998
2 48972  87.9097 236.8964 0001725  93.4787 266.6541 13.16595940234207
ONEWEB-0255             
1 48973U 21060G   26127.23380030  .00000043  00000+0  80116-4 0  9993
2 48973  87.9097 236.9116 0001829  96.5118 263.6221 13.16596935234279
ONEWEB-0256             
1 48974U 21060H   26127.25995173  .00000004  00000+0 -24429-4 0  9999
2 48974  87.9086 236.9126 0002036 102.8579 257.2780 13.16595568234249
ONEWEB-0257             
1 48975U 21060J   26127.29240117  .00000106  00000+0  24280-3 0  9991
2 48975  87.9096 236.8914 0001976  97.5306 262.6049 13.16596010234202
