[{"OBJECT_NAME":"ONEWEB-0233","OBJECT_ID":"2021-045AE","EPOCH":"2026-05-07T02:23:58.570080","MEAN_MOTION":13.15550381,"ECCENTRICITY":0.0001694,"INCLINATION":87.8965,"RA_OF_ASC_NODE":267.4266,"ARG_OF_PERICENTER":88.3523,"MEAN_ANOMALY":271.7801,"EPHEMERIS_TYPE":0,"CLASSIFICATION_TYPE":"U","NORAD_CAT_ID":48795,"ELEMENT_SET_NO":999,"REV_AT_EPOCH":23889,"BSTAR":-6.306000000000001e-05,"MEAN_MOTION_DOT":-1.1e-07,"MEAN_MOTION_DDOT":0.0},{"OBJECT_NAME":"ONEWEB-0190","OBJECT_ID":"2021-045AF","EPOCH":"2026-05-07T02:05:56.014368","MEAN_MOTION":13.1554863,"ECCENTRICITY":0.0001956,"INCLINATION":87.8967,"RA_OF_ASC_NODE":267.3908,"ARG_OF_PERICENTER":76.4207,"MEAN_ANOMALY":283.7142,"EPHEMERIS_TYPE":0,"CLASSIFICATION_TYPE":"U","NORAD_CAT_ID":48796,"ELEMENT_SET_NO":999,"REV_AT_EPOCH":23896,"BSTAR":-7.572400000000001e-05,"MEAN_MOTION_DOT":-1.6e-07,"MEAN_MOTION_DDOT":0.0},{"OBJECT_NAME":"ONEWEB-0236","OBJECT_ID":"2021-045AG","EPOCH":"2026-05-07T02:31:02.115840","MEAN_MOTION":13.15550717,"ECCENTRICITY":0.0001566,"INCLINATION":87.8975,"RA_OF_ASC_NODE":267.3954,"ARG_OF_PERICENTER":98.992,"MEAN_ANOMALY":261.1388,"EPHEMERIS_TYPE":0,"CLASSIFICATION_TYPE":"U","NORAD_CAT_ID":48797,"ELEMENT_SET_NO":999,"REV_AT_EPOCH":23885,"BSTAR":-0.0012010999999999999,"MEAN_MOTION_DOT":-4.39e-06,"MEAN_MOTION_DDOT":0.0},{"OBJECT_NAME":"ONEWEB-0248","OBJECT_ID":"2021-045AH","EPOCH":"2026-05-07T02:49:15.972672","MEAN_MOTION":13.15551088,"ECCENTRICITY":0.0001579,"INCLINATION":87.8976,"RA_OF_ASC_NODE":267.3747,"ARG_OF_PERICENTER":83.9246,"MEAN_ANOMALY":276.2064,"EPHEMERIS_TYPE":0,"CLASSIFICATION_TYPE":"U","NORAD_CAT_ID":48798,"ELEMENT_SET_NO":999,"REV_AT_EPOCH":23901,"BSTAR":-0.00026021,"MEAN_MOTION_DOT":-8.5e-07,"MEAN_MOTION_DDOT":0.0},{"OBJECT_NAME":"ONEWEB-0225","OBJECT_ID":"2021-045AJ","EPOCH":"2026-05-07T07:00:14.951808","MEAN_MOTION":13.15549621,"ECCENTRICITY":0.0001873,"INCLINATION":87.8965,"RA_OF_ASC_NODE":267.3506,"ARG_OF_PERICENTER":81.3634,"MEAN_ANOMALY":278.7708,"EPHEMERIS_TYPE":0,"CLASSIFICATION_TYPE":"U","NORAD_CAT_ID":48799,"ELEMENT_SET_NO":999,"REV_AT_EPOCH":23904,"BSTAR":0.00038328,"MEAN_MOTION_DOT":1.57e-06,"MEAN_MOTION_DDOT":0.0},{"OBJECT_NAME":"ONEWEB-0215","OBJECT_ID":"2021-045AK","EPOCH":"2026-05-07T02:37:52.990176","MEAN_MOTION":13.15548314,"ECCENTRICITY":0.0001802,"INCLINATION":87.8977,"RA_OF_ASC_NODE":267.366,"ARG_OF_PERICENTER":75.472,"MEAN_ANOMALY":284.661,"EPHEMERIS_TYPE":0,"CLASSIFICATION_TYPE":"U","NORAD_CAT_ID":48800,"ELEMENT_SET_NO":999,"REV_AT_EPOCH":23889,"BSTAR":-0.00040139000000000006,"MEAN_MOTION_DOT":-1.38e-06,"MEAN_MOTION_DDOT":0.0},{"OBJECT_NAME":"ONEWEB-0216","OBJECT_ID":"2021-045AL","EPOCH":"2026-05-07T02:51:34.290432","MEAN_MOTION":13.15548453,"ECCENTRICITY":0.0001896,"INCLINATION":87.8973,"RA_OF_ASC_NODE":267.3802,"ARG_OF_PERICENTER":99.3531,"MEAN_ANOMALY":260.7813,"EPHEMERIS_TYPE":0,"CLASSIFICATION_TYPE":"U","NORAD_CAT_ID":48801,"ELEMENT_SET_NO":999,"REV_AT_EPOCH":23890,"BSTAR":-0.00020615,"MEAN_MOTION_DOT":-6.5e-07,"MEAN_MOTION_DDOT":0.0},{"OBJECT_NAME":"ONEWEB-0239","OBJECT_ID":"2021-045AM","EPOCH":"2026-05-07T02:58:23.702016","MEAN_MOTION":13.1554952,"ECCENTRICITY":0.0001516,"INCLINATION":87.8962,"RA_OF_ASC_NODE":267.3897,"ARG_OF_PERICENTER":71.4598,"MEAN_ANOMALY":288.6697,"EPHEMERIS_TYPE":0,"CLASSIFICATION_TYPE":"U","NORAD_CAT_ID":48802,"ELEMENT_SET_NO":999,"REV_AT_EPOCH":23894,"BSTAR":0.00014989,"MEAN_MOTION_DOT":6.9e-07,"MEAN_MOTION_DDOT":0.0},{"OBJECT_NAME":"ONEWEB-0249","OBJECT_ID":"2021-060A","EPOCH":"2026-05-07T05:49:13.440288","MEAN_MOTION":13.16596112,"ECCENTRICITY":0.0001826,"INCLINATION":87.9097,"RA_OF_ASC_NODE":236.9078,"ARG_OF_PERICENTER":100.5279,"MEAN_ANOMALY":259.6058,"EPHEMERIS_TYPE":0,"CLASSIFICATION_TYPE":"U","NORAD_CAT_ID":48967,"ELEMENT_SET_NO":999,"REV_AT_EPOCH":23422,"BSTAR":-0.00014072000000000002,"MEAN_MOTION_DOT":-4.1e-07,"MEAN_MOTION_DDOT":0.0},{"OBJECT_NAME":"ONEWEB-0250","OBJECT_ID":"2021-060B","EPOCH":"2026-05-07T06:04:21.205344","MEAN_MOTION":13.2583123,"ECCENTRICITY":0.0001067,"INCLINATION":87.9096,"RA_OF_ASC_NODE":234.795,"ARG_OF_PERICENTER":119.7311,"MEAN_ANOMALY":240.3932,"EPHEMERIS_TYPE":0,"CLASSIFICATION_TYPE":"U","NORAD_CAT_ID":48968,"ELEMENT_SET_NO":999,"REV_AT_EPOCH":23479,"BSTAR":7.4443e-05,"MEAN_MOTION_DOT":4.6e-07,"MEAN_MOTION_DDOT":0.0},{"OBJECT_NAME":"ONEWEB-0252","OBJECT_ID":"2021-060D","EPOCH":"2026-05-07T06:33:42.312960","MEAN_MOTION":13.16595593,"ECCENTRICITY":0.0002198,"INCLINATION":87.9093,"RA_OF_ASC_NODE":236.8939,"ARG_OF_PERICENTER":99.6368,"MEAN_ANOMALY":260.5012,"EPHEMERIS_TYPE":0,"CLASSIFICATION_TYPE":"U","NORAD_CAT_ID":48970,"ELEMENT_SET_NO":999,"REV_AT_EPOCH":23427,"BSTAR":0.00021353,"MEAN_MOTION_DOT":9.4e-07,"MEAN_MOTION_DDOT":0.0},{"OBJECT_NAME":"ONEWEB-0253","OBJECT_ID":"2021-060E","EPOCH":"2026-05-07T06:17:43.624608","MEAN_MOTION":13.16595067,"ECCENTRICITY":0.000185,"INCLINATION":87.9095,"RA_OF_ASC_NODE":236.9017,"ARG_OF_PERICENTER":99.4599,"MEAN_ANOMALY":260.6741,"EPHEMERIS_TYPE":0,"CLASSIFICATION_TYPE":"U","NORAD_CAT_ID":48971,"ELEMENT_SET_NO":999,"REV_AT_EPOCH":23420,"BSTAR":-6.4256e-05,"MEAN_MOTION_DOT":-1.2e-07,"MEAN_MOTION_DDOT":0.0},{"OBJECT_NAME":"ONEWEB-0254","OBJECT_ID":"2021-060F","EPOCH":"2026-05-07T06:31:25.521888","MEAN_MOTION":13.1659594,"ECCENTRICITY":0.0001725,"INCLINATION":87.9097,"RA_OF_ASC_NODE":236.8964,"ARG_OF_PERICENTER":93.4787,"MEAN_ANOMALY":266.6541,"EPHEMERIS_TYPE":0,"CLASSIFICATION_TYPE":"U","NORAD_CAT_ID":48972,"ELEMENT_SET_NO":999,"REV_AT_EPOCH":23420,"BSTAR":0.00031852000000000003,"MEAN_MOTION_DOT":1.35e-06,"MEAN_MOTION_DDOT":0.0},{"OBJECT_NAME":"ONEWEB-0255","OBJECT_ID":"2021-060G","EPOCH":"2026-05-07T05:36:40.345920","MEAN_MOTION":13.16596935,"ECCENTRICITY":0.0001829,"INCLINATION":87.9097,"RA_OF_ASC_NODE":236.9116,"ARG_OF_PERICENTER":96.5118,"MEAN_ANOMALY":263.6221,"EPHEMERIS_TYPE":0,"CLASSIFICATION_TYPE":"U","NORAD_CAT_ID":48973,"ELEMENT_SET_NO":999,"REV_AT_EPOCH":23427,"BSTAR":8.0116e-05,"MEAN_MOTION_DOT":4.3e-07,"MEAN_MOTION_DDOT":0.0},{"OBJECT_NAME":"ONEWEB-0256","OBJECT_ID":"2021-060H","EPOCH":"2026-05-07T06:14:19.829472","MEAN_MOTION":13.16595568,"ECCENTRICITY":0.0002036,"INCLINATION":87.9086,"RA_OF_ASC_NODE":236.9126,"ARG_OF_PERICENTER":102.8579,"MEAN_ANOMALY":257.278,"EPHEMERIS_TYPE":0,"CLASSIFICATION_TYPE":"U","NORAD_CAT_ID":48974,"ELEMENT_SET_NO":999,"REV_AT_EPOCH":23424,"BSTAR":-2.4429000000000003e-05,"MEAN_MOTION_DOT":4e-08,"MEAN_MOTION_DDOT":0.0},{"OBJECT_NAME":"ONEWEB-0257","OBJECT_ID":"2021-060J","EPOCH":"2026-05-07T07:01:03.461088","MEAN_MOTION":13.1659601,"ECCENTRICITY":0.0001976,"INCLINATION":87.9096,"RA_OF_ASC_NODE":236.8914,"ARG_OF_PERICENTER":97.5306,"MEAN_ANOMALY":262.6049,"EPHEMERIS_TYPE":0,"CLASSIFICATION_TYPE":"U","NORAD_CAT_ID":48975,"ELEMENT_SET_NO":999,"REV_AT_EPOCH":23420,"BSTAR":0.0002428,"MEAN_MOTION_DOT":1.06e-06,"MEAN_MOTION_DDOT":0.0}]